LANDSAT 4               
1 13367U 82072A   02319.25428854  .00004938  00000-0  42513-3 0  3617
2 13367  98.2190  50.9199 0009651  60.9982 299.2204 14.97828596 83580
TDRS 1                  
1 13969U 83026B   02316.02161459 -.00000300  00000-0  10000-3 0  5564
2 13969  11.4256  25.1238 0004489 176.7543 167.9288  1.00278416 44837
LANDSAT 5               
1 14780U 84021A   02319.13884468 -.00005341  00000-0 -11760-2 0  3875
2 14780  98.1417  20.1195 0001763 127.2398 232.9258 14.57132005995001
ERBS                    
1 15354U 84108B   02319.11254899  .00003976  00000-0  24477-3 0  3113
2 15354  56.9910 345.3764 0035872 358.8216   1.2694 15.11656393987590
TDRS 3                  
1 19548U 88091B   02316.78914572 -.00000189  00000-0  10000-3 0  9070
2 19548   6.9811  59.5052 0002916 158.0641 203.0849  1.00272395 38997
TDRS 4                  
1 19883U 89021B   02318.74444992 -.00000258  00000-0  10000-3 0  1617
2 19883   4.8748  75.2904 0004066 139.6156  65.9586  1.00269671222586
HST                     
1 20580U 90037B   02319.19400321  .00004179  00000-0  33874-3 0  2160
2 20580  28.4670 297.4308 0003782 340.9067 131.9394 14.97275576488324
TDRS 5                  
1 21639U 91054B   02317.18014991  .00000085  00000-0  10000-3 0  9500
2 21639   4.0384  80.7543 0002343 143.6678  78.2321  1.00273786 41312
UARS                    
1 21701U 91063B   02318.70263257  .00002262  00000-0  18749-3 0  7527
2 21701  56.9814  59.9959 0006632  93.2940 266.8832 15.02579355611304
TOPEX/POSEIDON          
1 22076U 92052A   02318.79934582 -.00000038  00000-0  10000-3 0  5460
2 22076  66.0461  28.9588 0008116 266.8435  93.1658 12.80930323480030
TDRS 6                  
1 22314U 93003B   02317.10702547 -.00000278  00000-0  10000-3 0  4252
2 22314   3.2867  85.0970 0001845 150.1145 168.4403  1.00271993 36034
TDRS 7                  
1 23613U 95035B   02317.52539082  .00000000  00000-0  10000-3 0  2395
2 23613   5.5748  70.3816 0002504 160.7604 199.1548  1.00264962 26843
XTE                     
1 23757U 95074A   02318.75918626  .00011371  00000-0  54005-3 0  1810
2 23757  22.9821 180.6385 0009506 235.2950 124.6649 15.16842687378173
TRMM                    
1 25063U 97074A   02318.63007970 -.00212963  00000-0 -30887-2 0  8676
2 25063  34.9732  55.9898 0006739  79.7028 280.8284 15.55555260285004
ETS 7                   
1 25064U 97074B   02317.63128553  .00013723  00000-0  72354-3 0  1048
2 25064  34.9629  37.2051 0003249 143.1726 216.9209 15.14772286273972
ISS (ZARYA)             
1 25544U 98067A   02319.17961816  .00035498  00000-0  45104-3 0  3815
2 25544  51.6399  14.8618 0013830 138.0970 272.9088 15.58937952227524
LANDSAT 7               
1 25682U 99020A   02319.18428831 -.00000047  00000-0 -27930-6 0  5483
2 25682  98.2305  24.1553 0000388  79.0571 280.9861 14.57077077190706
TERRA                   
1 25994U 99068A   02319.13664077  .00001171  00000-0  26994-3 0  4112
2 25994  98.2116  31.7669 0001831  91.0384 268.9845 14.57093103154777
TDRS 8                  
1 26388U 00034A   02318.31233807  .00000098  00000-0  00000+0 0  5357
2 26388   5.0761 282.8005 0003032 286.8729 145.2816  1.00266757  8800
TDRS 9                  
1 27389U 02011A   02318.38440051  .00000120  00000-0  00000+0 0  1536
2 27389   8.3515 288.3884 0005543  35.1111  78.2424  1.00271704  4040
